start=new Date('2023-01-28T00:00:00.000Z').valueOf();
sats=[{"RA_OF_ASC_NODE":"67.1631","SITE":"AFETR","TLE_LINE2":"2 48360  53.0515  67.1631 0001540  77.2433 282.8728 15.06397338 95604","DECAY_DATE":null,"FILE":"3762956","LAUNCH_DATE":"2021-05-04","INCLINATION":"53.0515","MEAN_MOTION":"15.06397338","REV_AT_EPOCH":"9560","APOAPSIS":"548.288","REF_FRAME":"TEME","BSTAR":"0.00046273000000","EPHEMERIS_TYPE":"0","COUNTRY_CODE":"US","PERIAPSIS":"546.155","SEMIMAJOR_AXIS":"6925.357","OBJECT_NAME":"STARLINK-2622","CLASSIFICATION_TYPE":"U","GP_ID":"223805620","RCS_SIZE":"LARGE","MEAN_MOTION_DOT":"0.00006617","CENTER_NAME":"EARTH","ELEMENT_SET_NO":"999","PERIOD":"95.592","TLE_LINE1":"1 48360U 21038H   23027.39042137  .00006617  00000-0  46273-3 0  9993","MEAN_MOTION_DDOT":"0.0000000000000","ECCENTRICITY":"0.00015400","ARG_OF_PERICENTER":"77.2433","EPOCH":"2023-01-27T09:22:12.406368","OBJECT_TYPE":"PAYLOAD","MEAN_ANOMALY":"282.8728","NORAD_CAT_ID":"48360","OBJECT_ID":"2021-038H","MEAN_ELEMENT_THEORY":"SGP4","TIME_SYSTEM":"UTC"},{"OBJECT_NAME":"STARLINK-2591","SEMIMAJOR_AXIS":"6925.261","PERIAPSIS":"546.004","EPHEMERIS_TYPE":"0","BSTAR":"0.00064556000000","REF_FRAME":"TEME","COUNTRY_CODE":"US","INCLINATION":"53.0519","MEAN_MOTION":"15.06428604","LAUNCH_DATE":"2021-05-04","APOAPSIS":"548.248","REV_AT_EPOCH":"9560","SITE":"AFETR","TLE_LINE2":"2 48361  53.0519  67.1758 0001620  87.3182 272.7992 15.06428604 95603","RA_OF_ASC_NODE":"67.1758","FILE":"3762956","DECAY_DATE":null,"NORAD_CAT_ID":"48361","MEAN_ANOMALY":"272.7992","OBJECT_TYPE":"PAYLOAD","TIME_SYSTEM":"UTC","MEAN_ELEMENT_THEORY":"SGP4","OBJECT_ID":"2021-038J","TLE_LINE1":"1 48361U 21038J   23027.38672036  .00009354  00000-0  64556-3 0  9995","ELEMENT_SET_NO":"999","PERIOD":"95.590","CENTER_NAME":"EARTH","EPOCH":"2023-01-27T09:16:52.639104","ARG_OF_PERICENTER":"87.3182","ECCENTRICITY":"0.00016200","MEAN_MOTION_DDOT":"0.0000000000000","GP_ID":"223803891","MEAN_MOTION_DOT":"0.00009354","RCS_SIZE":"LARGE","CLASSIFICATION_TYPE":"U"},{"CLASSIFICATION_TYPE":"U","GP_ID":"223836824","MEAN_MOTION_DOT":"-0.00000633","RCS_SIZE":"LARGE","PERIOD":"95.592","ELEMENT_SET_NO":"999","TLE_LINE1":"1 48362U 21038K   23027.81800310 -.00000633  00000-0 -23638-4 0  9992","CENTER_NAME":"EARTH","EPOCH":"2023-01-27T19:37:55.467840","MEAN_MOTION_DDOT":"0.0000000000000","ECCENTRICITY":"0.00013190","ARG_OF_PERICENTER":"96.2847","NORAD_CAT_ID":"48362","OBJECT_TYPE":"PAYLOAD","MEAN_ANOMALY":"263.8293","TIME_SYSTEM":"UTC","MEAN_ELEMENT_THEORY":"SGP4","OBJECT_ID":"2021-038K","RA_OF_ASC_NODE":"65.3136","TLE_LINE2":"2 48362  53.0556  65.3136 0001319  96.2847 263.8293 15.06394696 95672","SITE":"AFETR","FILE":"3763218","DECAY_DATE":null,"MEAN_MOTION":"15.06394696","INCLINATION":"53.0556","LAUNCH_DATE":"2021-05-04","REV_AT_EPOCH":"9567","APOAPSIS":"548.143","EPHEMERIS_TYPE":"0","REF_FRAME":"TEME","BSTAR":"-0.00002363800000","COUNTRY_CODE":"US","SEMIMAJOR_AXIS":"6925.365","OBJECT_NAME":"STARLINK-2578","PERIAPSIS":"546.316"},{"INCLINATION":"53.0525","MEAN_MOTION":"15.06397277","LAUNCH_DATE":"2021-05-04","APOAPSIS":"548.334","REV_AT_EPOCH":"9628","TLE_LINE2":"2 48363  53.0525  61.6899 0001606  91.1508 268.9665 15.06397277 96286","SITE":"AFETR","RA_OF_ASC_NODE":"61.6899","FILE":"3762785","DECAY_DATE":null,"OBJECT_NAME":"STARLINK-2626","SEMIMAJOR_AXIS":"6925.357","PERIAPSIS":"546.110","EPHEMERIS_TYPE":"0","BSTAR":"0.00006067200000","REF_FRAME":"TEME","COUNTRY_CODE":"US","GP_ID":"223779489","MEAN_MOTION_DOT":"0.00000622","RCS_SIZE":"LARGE","CLASSIFICATION_TYPE":"U","NORAD_CAT_ID":"48363","MEAN_ANOMALY":"268.9665","OBJECT_TYPE":"PAYLOAD","TIME_SYSTEM":"UTC","MEAN_ELEMENT_THEORY":"SGP4","OBJECT_ID":"2021-038L","TLE_LINE1":"1 48363U 21038L   23027.49592876  .00000622  00000-0  60672-4 0  9997","PERIOD":"95.592","ELEMENT_SET_NO":"999","CENTER_NAME":"EARTH","EPOCH":"2023-01-27T11:54:08.244864","ECCENTRICITY":"0.00016060","ARG_OF_PERICENTER":"91.1508","MEAN_MOTION_DDOT":"0.0000000000000"},{"DECAY_DATE":null,"FILE":"3762956","RA_OF_ASC_NODE":"62.1219","SITE":"AFETR","TLE_LINE2":"2 48364  53.0536  62.1219 0001336  92.8179 267.2963 15.06381105 95682","REV_AT_EPOCH":"9568","APOAPSIS":"548.197","LAUNCH_DATE":"2021-05-04","MEAN_MOTION":"15.06381105","INCLINATION":"53.0536","COUNTRY_CODE":"US","REF_FRAME":"TEME","BSTAR":"-0.00012476000000","EPHEMERIS_TYPE":"0","PERIAPSIS":"546.346","SEMIMAJOR_AXIS":"6925.406","OBJECT_NAME":"STARLINK-2611","CLASSIFICATION_TYPE":"U","RCS_SIZE":"LARGE","MEAN_MOTION_DOT":"-0.00002138","GP_ID":"223805121","MEAN_MOTION_DDOT":"0.0000000000000","ARG_OF_PERICENTER":"92.8179","ECCENTRICITY":"0.00013360","EPOCH":"2023-01-27T10:39:53.794368","CENTER_NAME":"EARTH","ELEMENT_SET_NO":"999","PERIOD":"95.593","TLE_LINE1":"1 48364U 21038M   23027.44437262 -.00002138  00000-0 -12476-3 0  9994","OBJECT_ID":"2021-038M","TIME_SYSTEM":"UTC","MEAN_ELEMENT_THEORY":"SGP4","OBJECT_TYPE":"PAYLOAD","MEAN_ANOMALY":"267.2963","NORAD_CAT_ID":"48364"},{"RA_OF_ASC_NODE":"60.3004","TLE_LINE2":"2 48365  53.0553  60.3004 0001788  97.6344 262.4848 15.06384108 95744","SITE":"AFETR","FILE":"3763218","DECAY_DATE":null,"MEAN_MOTION":"15.06384108","INCLINATION":"53.0553","LAUNCH_DATE":"2021-05-04","APOAPSIS":"548.501","REV_AT_EPOCH":"9574","EPHEMERIS_TYPE":"0","REF_FRAME":"TEME","BSTAR":"0.00015257000000","COUNTRY_CODE":"US","SEMIMAJOR_AXIS":"6925.397","OBJECT_NAME":"STARLINK-2608","PERIAPSIS":"546.024","CLASSIFICATION_TYPE":"U","GP_ID":"223836573","MEAN_MOTION_DOT":"0.00001991","RCS_SIZE":"LARGE","PERIOD":"95.593","ELEMENT_SET_NO":"999","TLE_LINE1":"1 48365U 21038N   23027.80188483  .00001991  00000-0  15257-3 0  9997","CENTER_NAME":"EARTH","EPOCH":"2023-01-27T19:14:42.849312","MEAN_MOTION_DDOT":"0.0000000000000","ARG_OF_PERICENTER":"97.6344","ECCENTRICITY":"0.00017880","NORAD_CAT_ID":"48365","OBJECT_TYPE":"PAYLOAD","MEAN_ANOMALY":"262.4848","MEAN_ELEMENT_THEORY":"SGP4","TIME_SYSTEM":"UTC","OBJECT_ID":"2021-038N"},{"RCS_SIZE":"LARGE","MEAN_MOTION_DOT":"0.00001640","GP_ID":"223804141","CLASSIFICATION_TYPE":"U","OBJECT_ID":"2021-038P","TIME_SYSTEM":"UTC","MEAN_ELEMENT_THEORY":"SGP4","MEAN_ANOMALY":"272.5084","OBJECT_TYPE":"PAYLOAD","NORAD_CAT_ID":"48366","ECCENTRICITY":"0.00014490","ARG_OF_PERICENTER":"87.6070","MEAN_MOTION_DDOT":"0.0000000000000","EPOCH":"2023-01-27T10:59:04.412544","CENTER_NAME":"EARTH","TLE_LINE1":"1 48366U 21038P   23027.45768996  .00001640  00000-0  12895-3 0  9998","PERIOD":"95.592","ELEMENT_SET_NO":"999","APOAPSIS":"548.215","REV_AT_EPOCH":"9575","LAUNCH_DATE":"2021-05-04","MEAN_MOTION":"15.06400768","INCLINATION":"53.0525","DECAY_DATE":null,"FILE":"3762956","TLE_LINE2":"2 48366  53.0525  56.8554 0001449  87.6070 272.5084 15.06400768 95759","SITE":"AFETR","RA_OF_ASC_NODE":"56.8554","PERIAPSIS":"546.208","OBJECT_NAME":"STARLINK-2631","SEMIMAJOR_AXIS":"6925.346","COUNTRY_CODE":"US","BSTAR":"0.00012895000000","REF_FRAME":"TEME","EPHEMERIS_TYPE":"0"},{"SEMIMAJOR_AXIS":"6925.329","OBJECT_NAME":"STARLINK-2643","PERIAPSIS":"546.059","COUNTRY_CODE":"US","EPHEMERIS_TYPE":"0","REF_FRAME":"TEME","BSTAR":"0.00035083000000","APOAPSIS":"548.329","REV_AT_EPOCH":"9575","INCLINATION":"53.0534","MEAN_MOTION":"15.06406361","LAUNCH_DATE":"2021-05-04","FILE":"3762956","DECAY_DATE":null,"RA_OF_ASC_NODE":"56.8737","SITE":"AFETR","TLE_LINE2":"2 48367  53.0534  56.8737 0001639  97.9396 262.1779 15.06406361 95750","TIME_SYSTEM":"UTC","MEAN_ELEMENT_THEORY":"SGP4","OBJECT_ID":"2021-038Q","NORAD_CAT_ID":"48367","OBJECT_TYPE":"PAYLOAD","MEAN_ANOMALY":"262.1779","EPOCH":"2023-01-27T10:53:46.181472","MEAN_MOTION_DDOT":"0.0000000000000","ARG_OF_PERICENTER":"97.9396","ECCENTRICITY":"0.00016390","PERIOD":"95.592","ELEMENT_SET_NO":"999","TLE_LINE1":"1 48367U 21038Q   23027.45400673  .00004949  00000-0  35083-3 0  9993","CENTER_NAME":"EARTH","MEAN_MOTION_DOT":"0.00004949","RCS_SIZE":"LARGE","GP_ID":"223804890","CLASSIFICATION_TYPE":"U"},{"GP_ID":"223805621","RCS_SIZE":"LARGE","MEAN_MOTION_DOT":"0.00004716","CLASSIFICATION_TYPE":"U","OBJECT_TYPE":"PAYLOAD","MEAN_ANOMALY":"268.9658","NORAD_CAT_ID":"48368","OBJECT_ID":"2021-038R","TIME_SYSTEM":"UTC","MEAN_ELEMENT_THEORY":"SGP4","CENTER_NAME":"EARTH","PERIOD":"95.591","ELEMENT_SET_NO":"999","TLE_LINE1":"1 48368U 21038R   23027.49826669  .00004716  00000-0  33519-3 0  9999","MEAN_MOTION_DDOT":"0.0000000000000","ARG_OF_PERICENTER":"91.1506","ECCENTRICITY":"0.00015280","EPOCH":"2023-01-27T11:57:30.242016","LAUNCH_DATE":"2021-05-04","INCLINATION":"53.0531","MEAN_MOTION":"15.06410819","REV_AT_EPOCH":"9576","APOAPSIS":"548.239","RA_OF_ASC_NODE":"56.9539","SITE":"AFETR","TLE_LINE2":"2 48368  53.0531  56.9539 0001528  91.1506 268.9658 15.06410819 95769","DECAY_DATE":null,"FILE":"3762956","PERIAPSIS":"546.122","SEMIMAJOR_AXIS":"6925.315","OBJECT_NAME":"STARLINK-2623","REF_FRAME":"TEME","BSTAR":"0.00033519000000","EPHEMERIS_TYPE":"0","COUNTRY_CODE":"US"},{"OBJECT_NAME":"STARLINK-2641","SEMIMAJOR_AXIS":"6925.378","PERIAPSIS":"546.013","EPHEMERIS_TYPE":"0","BSTAR":"0.00006314300000","REF_FRAME":"TEME","COUNTRY_CODE":"US","INCLINATION":"53.0569","MEAN_MOTION":"15.06390425","LAUNCH_DATE":"2021-05-04","REV_AT_EPOCH":"9575","APOAPSIS":"548.473","SITE":"AFETR","TLE_LINE2":"2 48369  53.0569  56.8908 0001776  96.6295 263.4896 15.06390425 95753","RA_OF_ASC_NODE":"56.8908","FILE":"3762956","DECAY_DATE":null,"NORAD_CAT_ID":"48369","MEAN_ANOMALY":"263.4896","OBJECT_TYPE":"PAYLOAD","MEAN_ELEMENT_THEORY":"SGP4","TIME_SYSTEM":"UTC","OBJECT_ID":"2021-038S","TLE_LINE1":"1 48369U 21038S   23027.45032540  .00000659  00000-0  63143-4 0  9992","ELEMENT_SET_NO":"999","PERIOD":"95.593","CENTER_NAME":"EARTH","EPOCH":"2023-01-27T10:48:28.114560","ECCENTRICITY":"0.00017760","ARG_OF_PERICENTER":"96.6295","MEAN_MOTION_DDOT":"0.0000000000000","GP_ID":"223803892","MEAN_MOTION_DOT":"0.00000659","RCS_SIZE":"LARGE","CLASSIFICATION_TYPE":"U"}];
